{
  "type": "FeatureCollection",
  "features": [
    {
      "type": "Feature",
      "properties": {
        "norad_id": 2807,
        "name": "OPS 7218 (TRANSIT 16)",
        "group": "nnss",
        "lat": 69.28515995253731,
        "lon": 172.7578938529726,
        "alt_km": 1048.4241823165603,
        "timestamp": "2025-12-24T14:43:29.270091+00:00",
        "meta_object_name": "OPS 7218 (TRANSIT 16)",
        "meta_object_id": "1967-048A",
        "meta_epoch": "2025-12-24T07:07:33.651264",
        "meta_mean_motion": 13.50724626,
        "meta_eccentricity": 0.0022155,
        "meta_inclination": 89.6733,
        "meta_ra_of_asc_node": 353.6328,
        "meta_arg_of_pericenter": 83.3218,
        "meta_mean_anomaly": 288.5702,
        "meta_ephemeris_type": 0,
        "meta_classification_type": "U",
        "meta_norad_cat_id": 2807,
        "meta_element_set_no": 999,
        "meta_rev_at_epoch": 88432,
        "meta_bstar": 0.00013800616,
        "meta_mean_motion_dot": 9.9e-07,
        "meta_mean_motion_ddot": 0,
        "tle_line1": "1 02807U 67048A   25358.29691726  .00000099  00000+0  13801-3 0  9990",
        "tle_line2": "2 02807  89.6733 353.6328 0022155  83.3218 288.5702 13.50724626884328"
      },
      "geometry": {
        "type": "Point",
        "coordinates": [
          172.7578938529726,
          69.28515995253731
        ]
      }
    },
    {
      "type": "Feature",
      "properties": {
        "norad_id": 2965,
        "name": "OPS 4947 (TRANSIT 17)",
        "group": "nnss",
        "lat": -67.82986086410185,
        "lon": 21.684043415805945,
        "alt_km": 1068.5408051328695,
        "timestamp": "2025-12-24T14:43:29.270112+00:00",
        "meta_object_name": "OPS 4947 (TRANSIT 17)",
        "meta_object_id": "1967-092A",
        "meta_epoch": "2025-12-24T02:56:01.091904",
        "meta_mean_motion": 13.53456547,
        "meta_eccentricity": 0.0047039,
        "meta_inclination": 89.2486,
        "meta_ra_of_asc_node": 23.567,
        "meta_arg_of_pericenter": 200.7107,
        "meta_mean_anomaly": 218.5602,
        "meta_ephemeris_type": 0,
        "meta_classification_type": "U",
        "meta_norad_cat_id": 2965,
        "meta_element_set_no": 999,
        "meta_rev_at_epoch": 87251,
        "meta_bstar": 0.0001871117,
        "meta_mean_motion_dot": 1.38e-06,
        "meta_mean_motion_ddot": 0,
        "tle_line1": "1 02965U 67092A   25358.12223486  .00000138  00000+0  18711-3 0  9999",
        "tle_line2": "2 02965  89.2486  23.5670 0047039 200.7107 218.5602 13.53456547872514"
      },
      "geometry": {
        "type": "Point",
        "coordinates": [
          21.684043415805945,
          -67.82986086410185
        ]
      }
    },
    {
      "type": "Feature",
      "properties": {
        "norad_id": 3133,
        "name": "OPS 7034 (TRANSIT 18)",
        "group": "nnss",
        "lat": -0.49083547008241535,
        "lon": -86.32705665274307,
        "alt_km": 1109.0115243088212,
        "timestamp": "2025-12-24T14:43:29.270126+00:00",
        "meta_object_name": "OPS 7034 (TRANSIT 18)",
        "meta_object_id": "1968-012A",
        "meta_epoch": "2025-12-24T06:24:06.697152",
        "meta_mean_motion": 13.51568351,
        "meta_eccentricity": 0.00749114,
        "meta_inclination": 90.0285,
        "meta_ra_of_asc_node": 273.6717,
        "meta_arg_of_pericenter": 136.012,
        "meta_mean_anomaly": 337.8699,
        "meta_ephemeris_type": 0,
        "meta_classification_type": "U",
        "meta_norad_cat_id": 3133,
        "meta_element_set_no": 999,
        "meta_rev_at_epoch": 57074,
        "meta_bstar": 0.00021254939,
        "meta_mean_motion_dot": 1.51e-06,
        "meta_mean_motion_ddot": 0,
        "tle_line1": "1 03133U 68012A   25358.26674418  .00000151  00000+0  21255-3 0  9992",
        "tle_line2": "2 03133  90.0285 273.6717 0074911 136.0120 337.8699 13.51568351570740"
      },
      "geometry": {
        "type": "Point",
        "coordinates": [
          -86.32705665274307,
          -0.49083547008241535
        ]
      }
    },
    {
      "type": "Feature",
      "properties": {
        "norad_id": 4507,
        "name": "NNSS 19 (TRANSIT 19)",
        "group": "nnss",
        "lat": -37.37760481277516,
        "lon": -125.45443820127112,
        "alt_km": 1016.6925326548744,
        "timestamp": "2025-12-24T14:43:29.270138+00:00",
        "meta_object_name": "NNSS 19 (TRANSIT 19)",
        "meta_object_id": "1970-067A",
        "meta_epoch": "2025-12-24T04:14:45.200256",
        "meta_mean_motion": 13.51317415,
        "meta_eccentricity": 0.01702148,
        "meta_inclination": 90.0049,
        "meta_ra_of_asc_node": 234.5416,
        "meta_arg_of_pericenter": 259.9015,
        "meta_mean_anomaly": 98.2897,
        "meta_ephemeris_type": 0,
        "meta_classification_type": "U",
        "meta_norad_cat_id": 4507,
        "meta_element_set_no": 999,
        "meta_rev_at_epoch": 72376,
        "meta_bstar": 0.00014701551,
        "meta_mean_motion_dot": 1.12e-06,
        "meta_mean_motion_ddot": 0,
        "tle_line1": "1 04507U 70067A   25358.17691204  .00000112  00000+0  14702-3 0  9999",
        "tle_line2": "2 04507  90.0049 234.5416 0170214 259.9015  98.2897 13.51317415723760"
      },
      "geometry": {
        "type": "Point",
        "coordinates": [
          -125.45443820127112,
          -37.37760481277516
        ]
      }
    },
    {
      "type": "Feature",
      "properties": {
        "norad_id": 6909,
        "name": "NNSS 20 (TRANSIT 20)",
        "group": "nnss",
        "lat": 6.004194325797971,
        "lon": 74.86123973758139,
        "alt_km": 1070.7402793697756,
        "timestamp": "2025-12-24T14:43:29.270149+00:00",
        "meta_object_name": "NNSS 20 (TRANSIT 20)",
        "meta_object_id": "1973-081A",
        "meta_epoch": "2025-12-24T06:53:16.958976",
        "meta_mean_motion": 13.71440329,
        "meta_eccentricity": 0.01561954,
        "meta_inclination": 89.8561,
        "meta_ra_of_asc_node": 254.8813,
        "meta_arg_of_pericenter": 44.0956,
        "meta_mean_anomaly": 317.2539,
        "meta_ephemeris_type": 0,
        "meta_classification_type": "U",
        "meta_norad_cat_id": 6909,
        "meta_element_set_no": 999,
        "meta_rev_at_epoch": 80519,
        "meta_bstar": 0.00028402203,
        "meta_mean_motion_dot": 2.9e-06,
        "meta_mean_motion_ddot": 0,
        "tle_line1": "1 06909U 73081A   25358.28700184  .00000290  00000+0  28402-3 0  9995",
        "tle_line2": "2 06909  89.8561 254.8813 0156195  44.0956 317.2539 13.71440329805196"
      },
      "geometry": {
        "type": "Point",
        "coordinates": [
          74.86123973758139,
          6.004194325797971
        ]
      }
    },
    {
      "type": "Feature",
      "properties": {
        "norad_id": 10457,
        "name": "TRANSAT",
        "group": "nnss",
        "lat": -45.11152560560573,
        "lon": -101.46954418376082,
        "alt_km": 1075.8819928588937,
        "timestamp": "2025-12-24T14:43:29.270160+00:00",
        "meta_object_name": "TRANSAT",
        "meta_object_id": "1977-106A",
        "meta_epoch": "2025-12-24T05:01:15.948768",
        "meta_mean_motion": 13.4894531,
        "meta_eccentricity": 0.00264334,
        "meta_inclination": 89.6476,
        "meta_ra_of_asc_node": 78.1908,
        "meta_arg_of_pericenter": 156.957,
        "meta_mean_anomaly": 265.4878,
        "meta_ephemeris_type": 0,
        "meta_classification_type": "U",
        "meta_norad_cat_id": 10457,
        "meta_element_set_no": 999,
        "meta_rev_at_epoch": 36898,
        "meta_bstar": 0.00013248275,
        "meta_mean_motion_dot": 9.3e-07,
        "meta_mean_motion_ddot": 0,
        "tle_line1": "1 10457U 77106A   25358.20921237  .00000093  00000+0  13248-3 0  9999",
        "tle_line2": "2 10457  89.6476  78.1908 0026433 156.9570 265.4878 13.48945310368985"
      },
      "geometry": {
        "type": "Point",
        "coordinates": [
          -101.46954418376082,
          -45.11152560560573
        ]
      }
    },
    {
      "type": "Feature",
      "properties": {
        "norad_id": 12458,
        "name": "NOVA 1",
        "group": "nnss",
        "lat": 69.17153828902772,
        "lon": -89.17059052229258,
        "alt_km": 1155.9740469369362,
        "timestamp": "2025-12-24T14:43:29.270171+00:00",
        "meta_object_name": "NOVA 1",
        "meta_object_id": "1981-044A",
        "meta_epoch": "2025-12-24T07:12:21.701952",
        "meta_mean_motion": 13.23279668,
        "meta_eccentricity": 0.00157546,
        "meta_inclination": 89.8525,
        "meta_ra_of_asc_node": 91.2218,
        "meta_arg_of_pericenter": 75.5861,
        "meta_mean_anomaly": 343.5481,
        "meta_ephemeris_type": 0,
        "meta_classification_type": "U",
        "meta_norad_cat_id": 12458,
        "meta_element_set_no": 999,
        "meta_rev_at_epoch": 15339,
        "meta_bstar": 0.00019755669,
        "meta_mean_motion_dot": 9.3e-07,
        "meta_mean_motion_ddot": 0,
        "tle_line1": "1 12458U 81044A   25358.30025118  .00000093  00000+0  19756-3 0  9992",
        "tle_line2": "2 12458  89.8525  91.2218 0015754  75.5861 343.5481 13.23279668153392"
      },
      "geometry": {
        "type": "Point",
        "coordinates": [
          -89.17059052229258,
          69.17153828902772
        ]
      }
    }
  ]
}